GLOBALSTAR M067         
1 32263U 07048A   25328.59713727 -.00000093  00000+0  33232-4 0  9995
2 32263  51.9745 286.5553 0001320 350.7921 180.9359 12.40681841829397
GLOBALSTAR M070         
1 32264U 07048B   25328.40568634 -.00000075  00000+0  16153-3 0  9993
2 32264  51.9773   0.4090 0000452 126.4978 336.6740 12.62326113833901
GLOBALSTAR M066         
1 32265U 07048C   25328.62736301 -.00000091  00000+0  32205-4 0  9991
2 32265  51.9594 285.1439 0005181 342.6405 188.4705 12.30379670835045
GLOBALSTAR M068         
1 32266U 07048D   25328.74779397 -.00000081  00000+0  12911-3 0  9997
2 32266  51.9856 172.8099 0002036 106.5998 332.6294 12.62833999837841
GLOBALSTAR M079         
1 37188U 10054A   25328.54734375 -.00000092  00000+0  65382-4 0  9994
2 37188  52.0062  11.6245 0000095 162.1099   2.8089 12.62268674696704
GLOBALSTAR M074         
1 37189U 10054B   25328.57360997 -.00000058  00000+0  25546-3 0  9992
2 37189  52.0042  10.8411 0000358  89.5563  74.8040 12.62263733697314
GLOBALSTAR M076         
1 37190U 10054C   25328.60061840 -.00000084  00000+0  11217-3 0  9992
2 37190  52.0054  10.9469 0000237  58.4245 107.3202 12.62267627697038
GLOBALSTAR M077         
1 37191U 10054D   25328.62243081 -.00000081  00000+0  13511-4 0  9991
2 37191  52.0120 339.5496 0017548 298.7567 221.7056 11.82670047697215
